<?xml version="1.0" encoding="UTF-8"?>
<ndm xmlns:xsi="http://www.w3.org/2001/XMLSchema-instance" xsi:noNamespaceSchemaLocation="https://sanaregistry.org/r/ndmxml_unqualified/ndmxml-2.0.0-master-2.0.xsd">
<omm id="CCSDS_OMM_VERS" version="2.0">
<header><CREATION_DATE/><ORIGINATOR/></header><body><segment><metadata><OBJECT_NAME>IRIDIUM 39</OBJECT_NAME><OBJECT_ID>1997-069D</OBJECT_ID><CENTER_NAME>EARTH</CENTER_NAME><REF_FRAME>TEME</REF_FRAME><TIME_SYSTEM>UTC</TIME_SYSTEM><MEAN_ELEMENT_THEORY>SGP4</MEAN_ELEMENT_THEORY></metadata><data><meanElements><EPOCH>2025-02-28T12:14:37.572576</EPOCH><MEAN_MOTION>14.48943217</MEAN_MOTION><ECCENTRICITY>.0016469</ECCENTRICITY><INCLINATION>86.3859</INCLINATION><RA_OF_ASC_NODE>257.7242</RA_OF_ASC_NODE><ARG_OF_PERICENTER>314.8282</ARG_OF_PERICENTER><MEAN_ANOMALY>45.1583</MEAN_ANOMALY></meanElements><tleParameters><EPHEMERIS_TYPE>0</EPHEMERIS_TYPE><CLASSIFICATION_TYPE>U</CLASSIFICATION_TYPE><NORAD_CAT_ID>25042</NORAD_CAT_ID><ELEMENT_SET_NO>999</ELEMENT_SET_NO><REV_AT_EPOCH>43322</REV_AT_EPOCH><BSTAR>.43978E-3</BSTAR><MEAN_MOTION_DOT>.1687E-4</MEAN_MOTION_DOT><MEAN_MOTION_DDOT>0</MEAN_MOTION_DDOT></tleParameters></data></segment></body></omm>
<omm id="CCSDS_OMM_VERS" version="2.0">
<header><CREATION_DATE/><ORIGINATOR/></header><body><segment><metadata><OBJECT_NAME>IRIDIUM 38</OBJECT_NAME><OBJECT_ID>1997-069E</OBJECT_ID><CENTER_NAME>EARTH</CENTER_NAME><REF_FRAME>TEME</REF_FRAME><TIME_SYSTEM>UTC</TIME_SYSTEM><MEAN_ELEMENT_THEORY>SGP4</MEAN_ELEMENT_THEORY></metadata><data><meanElements><EPOCH>2025-02-28T13:11:55.946976</EPOCH><MEAN_MOTION>14.37941263</MEAN_MOTION><ECCENTRICITY>.0003936</ECCENTRICITY><INCLINATION>86.3911</INCLINATION><RA_OF_ASC_NODE>278.8860</RA_OF_ASC_NODE><ARG_OF_PERICENTER>91.0284</ARG_OF_PERICENTER><MEAN_ANOMALY>269.1365</MEAN_ANOMALY></meanElements><tleParameters><EPHEMERIS_TYPE>0</EPHEMERIS_TYPE><CLASSIFICATION_TYPE>U</CLASSIFICATION_TYPE><NORAD_CAT_ID>25043</NORAD_CAT_ID><ELEMENT_SET_NO>999</ELEMENT_SET_NO><REV_AT_EPOCH>43060</REV_AT_EPOCH><BSTAR>.31718E-3</BSTAR><MEAN_MOTION_DOT>.977E-5</MEAN_MOTION_DOT><MEAN_MOTION_DDOT>0</MEAN_MOTION_DDOT></tleParameters></data></segment></body></omm>
<omm id="CCSDS_OMM_VERS" version="2.0">
<header><CREATION_DATE/><ORIGINATOR/></header><body><segment><metadata><OBJECT_NAME>IRIDIUM 42</OBJECT_NAME><OBJECT_ID>1997-077A</OBJECT_ID><CENTER_NAME>EARTH</CENTER_NAME><REF_FRAME>TEME</REF_FRAME><TIME_SYSTEM>UTC</TIME_SYSTEM><MEAN_ELEMENT_THEORY>SGP4</MEAN_ELEMENT_THEORY></metadata><data><meanElements><EPOCH>2025-02-28T08:29:03.151680</EPOCH><MEAN_MOTION>14.36191597</MEAN_MOTION><ECCENTRICITY>.0002689</ECCENTRICITY><INCLINATION>86.3923</INCLINATION><RA_OF_ASC_NODE>285.0097</RA_OF_ASC_NODE><ARG_OF_PERICENTER>93.3607</ARG_OF_PERICENTER><MEAN_ANOMALY>266.7897</MEAN_ANOMALY></meanElements><tleParameters><EPHEMERIS_TYPE>0</EPHEMERIS_TYPE><CLASSIFICATION_TYPE>U</CLASSIFICATION_TYPE><NORAD_CAT_ID>25077</NORAD_CAT_ID><ELEMENT_SET_NO>999</ELEMENT_SET_NO><REV_AT_EPOCH>42557</REV_AT_EPOCH><BSTAR>.32741E-3</BSTAR><MEAN_MOTION_DOT>.974E-5</MEAN_MOTION_DOT><MEAN_MOTION_DDOT>0</MEAN_MOTION_DDOT></tleParameters></data></segment></body></omm>
<omm id="CCSDS_OMM_VERS" version="2.0">
<header><CREATION_DATE/><ORIGINATOR/></header><body><segment><metadata><OBJECT_NAME>IRIDIUM 44</OBJECT_NAME><OBJECT_ID>1997-077B</OBJECT_ID><CENTER_NAME>EARTH</CENTER_NAME><REF_FRAME>TEME</REF_FRAME><TIME_SYSTEM>UTC</TIME_SYSTEM><MEAN_ELEMENT_THEORY>SGP4</MEAN_ELEMENT_THEORY></metadata><data><meanElements><EPOCH>2025-02-28T12:46:03.583488</EPOCH><MEAN_MOTION>14.40066301</MEAN_MOTION><ECCENTRICITY>.0003364</ECCENTRICITY><INCLINATION>86.3904</INCLINATION><RA_OF_ASC_NODE>267.1274</RA_OF_ASC_NODE><ARG_OF_PERICENTER>58.8642</ARG_OF_PERICENTER><MEAN_ANOMALY>301.2887</MEAN_ANOMALY></meanElements><tleParameters><EPHEMERIS_TYPE>0</EPHEMERIS_TYPE><CLASSIFICATION_TYPE>U</CLASSIFICATION_TYPE><NORAD_CAT_ID>25078</NORAD_CAT_ID><ELEMENT_SET_NO>999</ELEMENT_SET_NO><REV_AT_EPOCH>42806</REV_AT_EPOCH><BSTAR>.3516E-3</BSTAR><MEAN_MOTION_DOT>.1128E-4</MEAN_MOTION_DOT><MEAN_MOTION_DDOT>0</MEAN_MOTION_DDOT></tleParameters></data></segment></body></omm>
<omm id="CCSDS_OMM_VERS" version="2.0">
<header><CREATION_DATE/><ORIGINATOR/></header><body><segment><metadata><OBJECT_NAME>IRIDIUM 45</OBJECT_NAME><OBJECT_ID>1997-082A</OBJECT_ID><CENTER_NAME>EARTH</CENTER_NAME><REF_FRAME>TEME</REF_FRAME><TIME_SYSTEM>UTC</TIME_SYSTEM><MEAN_ELEMENT_THEORY>SGP4</MEAN_ELEMENT_THEORY></metadata><data><meanElements><EPOCH>2025-02-28T13:22:18.913440</EPOCH><MEAN_MOTION>15.17032678</MEAN_MOTION><ECCENTRICITY>.01287</ECCENTRICITY><INCLINATION>86.3565</INCLINATION><RA_OF_ASC_NODE>100.4602</RA_OF_ASC_NODE><ARG_OF_PERICENTER>18.7845</ARG_OF_PERICENTER><MEAN_ANOMALY>341.8079</MEAN_ANOMALY></meanElements><tleParameters><EPHEMERIS_TYPE>0</EPHEMERIS_TYPE><CLASSIFICATION_TYPE>U</CLASSIFICATION_TYPE><NORAD_CAT_ID>25104</NORAD_CAT_ID><ELEMENT_SET_NO>999</ELEMENT_SET_NO><REV_AT_EPOCH>43579</REV_AT_EPOCH><BSTAR>.10767E-2</BSTAR><MEAN_MOTION_DOT>.26496E-3</MEAN_MOTION_DOT><MEAN_MOTION_DDOT>0</MEAN_MOTION_DDOT></tleParameters></data></segment></body></omm>
<omm id="CCSDS_OMM_VERS" version="2.0">
<header><CREATION_DATE/><ORIGINATOR/></header><body><segment><metadata><OBJECT_NAME>IRIDIUM 24</OBJECT_NAME><OBJECT_ID>1997-082B</OBJECT_ID><CENTER_NAME>EARTH</CENTER_NAME><REF_FRAME>TEME</REF_FRAME><TIME_SYSTEM>UTC</TIME_SYSTEM><MEAN_ELEMENT_THEORY>SGP4</MEAN_ELEMENT_THEORY></metadata><data><meanElements><EPOCH>2025-02-28T12:07:55.730496</EPOCH><MEAN_MOTION>14.41916978</MEAN_MOTION><ECCENTRICITY>.0013544</ECCENTRICITY><INCLINATION>86.3916</INCLINATION><RA_OF_ASC_NODE>126.4105</RA_OF_ASC_NODE><ARG_OF_PERICENTER>80.3706</ARG_OF_PERICENTER><MEAN_ANOMALY>279.9023</MEAN_ANOMALY></meanElements><tleParameters><EPHEMERIS_TYPE>0</EPHEMERIS_TYPE><CLASSIFICATION_TYPE>U</CLASSIFICATION_TYPE><NORAD_CAT_ID>25105</NORAD_CAT_ID><ELEMENT_SET_NO>999</ELEMENT_SET_NO><REV_AT_EPOCH>42780</REV_AT_EPOCH><BSTAR>.34589E-3</BSTAR><MEAN_MOTION_DOT>.1153E-4</MEAN_MOTION_DOT><MEAN_MOTION_DDOT>0</MEAN_MOTION_DDOT></tleParameters></data></segment></body></omm>
<omm id="CCSDS_OMM_VERS" version="2.0">
<header><CREATION_DATE/><ORIGINATOR/></header><body><segment><metadata><OBJECT_NAME>IRIDIUM 51</OBJECT_NAME><OBJECT_ID>1998-018A</OBJECT_ID><CENTER_NAME>EARTH</CENTER_NAME><REF_FRAME>TEME</REF_FRAME><TIME_SYSTEM>UTC</TIME_SYSTEM><MEAN_ELEMENT_THEORY>SGP4</MEAN_ELEMENT_THEORY></metadata><data><meanElements><EPOCH>2025-02-28T13:52:44.983488</EPOCH><MEAN_MOTION>15.30686741</MEAN_MOTION><ECCENTRICITY>.0100451</ECCENTRICITY><INCLINATION>86.3847</INCLINATION><RA_OF_ASC_NODE>109.2525</RA_OF_ASC_NODE><ARG_OF_PERICENTER>305.6030</ARG_OF_PERICENTER><MEAN_ANOMALY>53.5890</MEAN_ANOMALY></meanElements><tleParameters><EPHEMERIS_TYPE>0</EPHEMERIS_TYPE><CLASSIFICATION_TYPE>U</CLASSIFICATION_TYPE><NORAD_CAT_ID>25262</NORAD_CAT_ID><ELEMENT_SET_NO>999</ELEMENT_SET_NO><REV_AT_EPOCH>43036</REV_AT_EPOCH><BSTAR>.13057E-2</BSTAR><MEAN_MOTION_DOT>.45488E-3</MEAN_MOTION_DOT><MEAN_MOTION_DDOT>0</MEAN_MOTION_DDOT></tleParameters></data></segment></body></omm>
<omm id="CCSDS_OMM_VERS" version="2.0">
<header><CREATION_DATE/><ORIGINATOR/></header><body><segment><metadata><OBJECT_NAME>IRIDIUM 57</OBJECT_NAME><OBJECT_ID>1998-019B</OBJECT_ID><CENTER_NAME>EARTH</CENTER_NAME><REF_FRAME>TEME</REF_FRAME><TIME_SYSTEM>UTC</TIME_SYSTEM><MEAN_ELEMENT_THEORY>SGP4</MEAN_ELEMENT_THEORY></metadata><data><meanElements><EPOCH>2025-02-28T10:56:48.123456</EPOCH><MEAN_MOTION>14.35759162</MEAN_MOTION><ECCENTRICITY>.0002114</ECCENTRICITY><INCLINATION>86.4020</INCLINATION><RA_OF_ASC_NODE>190.7677</RA_OF_ASC_NODE><ARG_OF_PERICENTER>93.6908</ARG_OF_PERICENTER><MEAN_ANOMALY>266.4531</MEAN_ANOMALY></meanElements><tleParameters><EPHEMERIS_TYPE>0</EPHEMERIS_TYPE><CLASSIFICATION_TYPE>U</CLASSIFICATION_TYPE><NORAD_CAT_ID>25273</NORAD_CAT_ID><ELEMENT_SET_NO>999</ELEMENT_SET_NO><REV_AT_EPOCH>40918</REV_AT_EPOCH><BSTAR>.39344E-3</BSTAR><MEAN_MOTION_DOT>.1156E-4</MEAN_MOTION_DOT><MEAN_MOTION_DDOT>0</MEAN_MOTION_DDOT></tleParameters></data></segment></body></omm>

</ndm>
