IRIDIUM 39              
1 25042U 97069D   25059.51015709  .00001687  00000+0  43978-3 0  9998
2 25042  86.3859 257.7242 0016469 314.8282  45.1583 14.48943217433220
IRIDIUM 38              
1 25043U 97069E   25059.54995309  .00000977  00000+0  31718-3 0  9995
2 25043  86.3911 278.8860 0003936  91.0284 269.1365 14.37941263430603
IRIDIUM 42              
1 25077U 97077A   25059.35350870  .00000974  00000+0  32741-3 0  9992
2 25077  86.3923 285.0097 0002689  93.3607 266.7897 14.36191597425572
IRIDIUM 44              
1 25078U 97077B   25059.53198592  .00001128  00000+0  35160-3 0  9994
2 25078  86.3904 267.1274 0003364  58.8642 301.2887 14.40066301428066
IRIDIUM 45              
1 25104U 97082A   25059.55716335  .00026496  00000+0  10767-2 0  9993
2 25104  86.3565 100.4602 0128700  18.7845 341.8079 15.17032678435791
IRIDIUM 24              
1 25105U 97082B   25059.50550614  .00001153  00000+0  34589-3 0  9997
2 25105  86.3916 126.4105 0013544  80.3706 279.9023 14.41916978427801
IRIDIUM 51              
1 25262U 98018A   25059.57829842  .00045488  00000+0  13057-2 0  9995
2 25262  86.3847 109.2525 0100451 305.6030  53.5890 15.30686741430364
IRIDIUM 57              
1 25273U 98019B   25059.45611254  .00001156  00000+0  39344-3 0  9993
2 25273  86.4020 190.7677 0002114  93.6908 266.4531 14.35759162409183
